NORAD_CAT_ID,OBJECT_NAME,OBJECT_TYPE,EPOCH,MEAN_MOTION,ECCENTRICITY,INCLINATION,RA_OF_ASC_NODE,ARG_OF_PERICENTER,MEAN_ANOMALY,BSTAR,MEAN_MOTION_DOT,MEAN_MOTION_DDOT,TLE_LINE0,TLE_LINE1,TLE_LINE2,SEMIMAJOR_AXIS,PERIOD,APOGEE,PERIGEE,DECAYED
54058.0,STARLINK-5167,PAYLOAD,2022-11-07 08:00:01,15.71088611,0.0006541,53.2175,60.2013,269.9079,283.2908,-0.010321,-0.01178819,0.0,0 STARLINK-5167,1 54058U 22136H   22311.33334491 -.01178819  00000-0 -10321-1 0  9990,2 54058  53.2175  60.2013 0006541 269.9079 283.2908 15.71088611  3303,6733.922,91.656,360.191,351.38199999999995,0.0
54058.0,STARLINK-5167,PAYLOAD,2022-11-07 14:00:01,15.7048334,9.55e-05,53.2173,58.9703,323.7136,203.9626,-0.011125,-0.01249964,0.0,0 STARLINK-5167,1 54058U 22136H   22311.58334491 -.01249964  00000-0 -11125-1 0  9990,2 54058  53.2173  58.9703 0000955 323.7136 203.9626 15.70483340  3333,6735.651999999999,91.692,358.16,356.87300000000016,0.0
54058.0,STARLINK-5167,PAYLOAD,2022-11-07 22:00:00,15.69589225,0.0001188,53.2171,57.3278,49.7945,202.9908,-0.011019,-0.01198111,0.0,0 STARLINK-5167,1 54058U 22136H   22311.91667824 -.01198111  00000-0 -11019-1 0  9995,2 54058  53.2171  57.3278 0001188  49.7945 202.9908 15.69589225  1307,6738.209,91.744,360.875,359.274,0.0
54058.0,STARLINK-5167,PAYLOAD,2022-11-08 10:00:01,15.6830075,0.0001624,53.2175,54.8685,40.725,157.8336,-0.011563,-0.01192475,0.0,0 STARLINK-5167,1 54058U 22136H   22312.41668981 -.01192475  00000-0 -11563-1 0  9997,2 54058  53.2175  54.8685 0001624  40.7250 157.8336 15.68300750  3476,6741.9,91.819,364.859,362.67,0.0
54058.0,STARLINK-5167,PAYLOAD,2022-11-08 14:00:01,15.67895349,0.0001246,53.2171,54.0515,50.0918,9.7766,-0.012103,-0.01223806,0.0,0 STARLINK-5167,1 54058U 22136H   22312.58334491 -.01223806  00000-0 -12103-1 0  9995,2 54058  53.2171  54.0515 0001246  50.0918   9.7766 15.67895349  1305,6743.062,91.843,365.767,364.086,0.0
54058.0,STARLINK-5167,PAYLOAD,2022-11-08 22:00:00,15.67021488,0.0001409999999999,53.2169,52.4153,44.8443,97.0352,-0.012293,-0.01201701,0.0,0 STARLINK-5167,1 54058U 22136H   22312.91667824 -.01201701  00000-0 -12293-1 0  9991,2 54058  53.2169  52.4153 0001410  44.8443  97.0352 15.67021488  1305,6745.568,91.894,368.384,366.482,0.0
54058.0,STARLINK-5167,PAYLOAD,2022-11-09 06:00:00,15.66161874,0.0001544,53.2173,50.7806,41.7448,181.1079,-0.01267,-0.01196551,0.0,0 STARLINK-5167,1 54058U 22136H   22313.25001157 -.01196551  00000-0 -12670-1 0  9995,2 54058  53.2173  50.7806 0001544  41.7448 181.1079 15.66161874  3604,6748.036,91.945,370.943,368.859,0.0
54058.0,STARLINK-5167,PAYLOAD,2022-11-09 14:00:01,15.65308376,0.00013,53.2175,49.1512,53.4638,249.3288,-0.01319,-0.01202627,0.0,0 STARLINK-5167,1 54058U 22136H   22313.58334491 -.01202627  00000-0 -13190-1 0  9991,2 54058  53.2175  49.1512 0001300  53.4638 249.3288 15.65308376  1306,6750.489000000001,91.995,373.232,371.476,0.0
54058.0,STARLINK-5167,PAYLOAD,2022-11-09 22:00:01,15.64415585,0.0001474,53.2169,47.5211,33.4439,348.3422,-0.013035,-0.01152032,0.0,0 STARLINK-5167,1 54058U 22136H   22313.91668981 -.01152032  00000-0 -13035-1 0  9994,2 54058  53.2169  47.5211 0001474  33.4439 348.3422 15.64415585  3702,6753.057,92.047,375.917,373.927,0.0
54058.0,STARLINK-5167,PAYLOAD,2022-11-10 14:00:01,15.62757728,0.0001675,53.2172,44.2699,48.411,128.0168,-0.014939,-0.01227736,0.0,0 STARLINK-5167,1 54058U 22136H   22314.58334491 -.01227736  00000-0 -14939-1 0  9992,2 54058  53.2172  44.2699 0001675  48.4110 128.0168 15.62757728  1305,6757.831999999999,92.145,380.829,378.565,0.0
54058.0,STARLINK-5167,PAYLOAD,2022-11-10 22:00:00,15.61890144,0.0001546,53.2168,42.6462,42.188,210.0677,-0.015277,-0.01214816,0.0,0 STARLINK-5167,1 54058U 22136H   22314.91667824 -.01214816  00000-0 -15277-1 0  9999,2 54058  53.2168  42.6462 0001546  42.1880 210.0677 15.61890144  3861,6760.334,92.196,383.245,381.154,0.0
54058.0,STARLINK-5167,PAYLOAD,2022-11-11 14:00:01,15.60169972,0.0001483,53.2174,39.4072,42.4208,358.3912,-0.016201,-0.01205904,0.0,0 STARLINK-5167,1 54058U 22136H   22315.58334491 -.01205904  00000-0 -16201-1 0  9990,2 54058  53.2174  39.4072 0001483  42.4208 358.3912 15.60169972  1308,6765.303000000001,92.298,388.171,386.164,0.0
54058.0,STARLINK-5167,PAYLOAD,2022-11-11 22:00:00,15.59321634,0.0001877,53.2172,37.7893,32.2343,81.3065,-0.016916,-0.01217536,0.0,0 STARLINK-5167,1 54058U 22136H   22315.91667824 -.01217536  00000-0 -16916-1 0  9993,2 54058  53.2172  37.7893 0001877  32.2343  81.3065 15.59321634  4018,6767.755999999999,92.348,390.892,388.351,0.0
54058.0,STARLINK-5167,PAYLOAD,2022-11-12 14:00:01,15.57592905,0.0001651,53.2175,34.5631,41.1118,214.8087,-0.017726,-0.01196759,0.0,0 STARLINK-5167,1 54058U 22136H   22316.58334491 -.01196759  00000-0 -17726-1 0  9991,2 54058  53.2175  34.5631 0001651  41.1118 214.8087 15.57592905  1300,6772.763000000001,92.45,395.746,393.51,0.0
54058.0,STARLINK-5167,PAYLOAD,2022-11-12 22:00:00,15.56733795,0.000162,53.2171,32.951,31.7491,293.816,-0.018288,-0.01195486,0.0,0 STARLINK-5167,1 54058U 22136H   22316.91667824 -.01195486  00000-0 -18288-1 0  9997,2 54058  53.2171  32.9510 0001620  31.7491 293.8160 15.56733795  1301,6775.254,92.501,398.217,396.022,0.0
54058.0,STARLINK-5167,PAYLOAD,2022-11-13 06:00:02,15.55913882,0.0005947999999999,53.2169,31.342,271.9827,122.2416,-0.019712,-0.01265871,0.0,0 STARLINK-5167,1 54058U 22136H   22317.25002315 -.01265871  00000-0 -19712-1 0  9992,2 54058  53.2169  31.3420 0005948 271.9827 122.2416 15.55913882  4228,6777.634,92.55,403.531,395.468,0.0
54058.0,STARLINK-5167,PAYLOAD,2022-11-13 14:00:01,15.55076481,0.0001557,53.2171,29.7379,40.088,61.6407,-0.020765,-0.0128804,0.0,0 STARLINK-5167,1 54058U 22136H   22317.58334491 -.01288040  00000-0 -20765-1 0  9994,2 54058  53.2171  29.7379 0001557  40.0880  61.6407 15.55076481  4277,6780.066999999999,92.6,402.98800000000006,400.877,0.0
54058.0,STARLINK-5167,PAYLOAD,2022-11-13 22:00:00,15.54161722,0.0001593,53.2171,28.1318,45.2968,123.014,-0.020068,-0.0119248,0.0,0 STARLINK-5167,1 54058U 22136H   22317.91667824 -.01192480  00000-0 -20068-1 0  9998,2 54058  53.2171  28.1318 0001593  45.2968 123.0140 15.54161722  1307,6782.727,92.654,405.673,403.512,0.0
54058.0,STARLINK-5167,PAYLOAD,2022-11-14 14:00:01,15.52443189,0.0001467,53.2175,24.9304,44.2958,254.0298,-0.021233,-0.01203776,0.0,0 STARLINK-5167,1 54058U 22136H   22318.58334491 -.01203776  00000-0 -21233-1 0  9999,2 54058  53.2175  24.9304 0001467  44.2958 254.0298 15.52443189  4432,6787.732,92.757,410.593,408.601,0.0
54058.0,STARLINK-5167,PAYLOAD,2022-11-14 22:00:00,15.51587921,0.0001283,53.2175,23.3305,50.7667,311.0215,-0.021978,-0.01207611,0.0,0 STARLINK-5167,1 54058U 22136H   22318.91667824 -.01207611  00000-0 -21978-1 0  9993,2 54058  53.2175  23.3305 0001283  50.7667 311.0215 15.51587921  1309,6790.226,92.808,412.962,411.22,0.0
54058.0,STARLINK-5167,PAYLOAD,2022-11-15 14:00:01,15.49908116,0.0001932,53.2176,20.1419,35.8321,89.8576,-0.00066529,-0.0003806,0.0,0 STARLINK-5167,1 54058U 22136H   22319.58334491 -.00038060  00000-0 -66529-3 0  9990,2 54058  53.2176  20.1419 0001932  35.8321  89.8576 15.49908116  1303,6795.132,92.909,418.309,415.684,0.0
54058.0,STARLINK-5167,PAYLOAD,2022-11-15 18:00:02,15.49886828,0.000188,53.2172,19.3445,33.0964,303.1251,-4.0264e-05,-2.737e-05,0.0,0 STARLINK-5167,1 54058U 22136H   22319.75002315 -.00002737  00000-0 -40264-4 0  9997,2 54058  53.2172  19.3445 0001880  33.0964 303.1251 15.49886828  4617,6795.194,92.91,418.336,415.781,0.0
54058.0,STARLINK-5167,PAYLOAD,2022-11-15 22:00:00,15.49885747,0.0001763,53.2176,18.547,35.6481,150.967,-5.2002e-06,-7.47e-06,0.0,0 STARLINK-5167,1 54058U 22136H   22319.91667824 -.00000747  00000-0 -52002-5 0  9990,2 54058  53.2176  18.5470 0001763  35.6481 150.9670 15.49885747  1307,6795.196999999999,92.91,418.26,415.864,0.0
54058.0,STARLINK-5167,PAYLOAD,2022-11-16 14:00:01,15.49884121,0.0001899,53.2174,15.3626,33.6039,274.9042,4.956e-05,2.362e-05,0.0,0 STARLINK-5167,1 54058U 22136H   22320.58335648  .00002362  00000-0  49560-4 0  9998,2 54058  53.2174  15.3626 0001899  33.6039 274.9042 15.49884121  1305,6795.2019999999975,92.91,418.357,415.776,0.0
54058.0,STARLINK-5167,PAYLOAD,2022-11-16 20:00:01,15.49887528,0.0001808,53.2173,14.1665,34.3498,229.7793,-7.966100000000001e-05,-4.971e-05,0.0,0 STARLINK-5167,1 54058U 22136H   22320.83334491 -.00004971  00000-0 -79661-4 0  9996,2 54058  53.2173  14.1665 0001808  34.3498 229.7793 15.49887528  4781,6795.191999999999,92.91,418.285,415.828,0.0
54058.0,STARLINK-5167,PAYLOAD,2022-11-16 22:00:08,15.49885353,0.0001791,53.2174,13.7673,35.3394,334.4717,-2.538e-06,-5.96e-06,0.0,0 STARLINK-5167,1 54058U 22136H   22320.91675926 -.00000596  00000-0 -25380-5 0  9995,2 54058  53.2174  13.7673 0001791  35.3394 334.4717 15.49885353  1302,6795.198,92.91,418.28,415.846,0.0
54058.0,STARLINK-5167,PAYLOAD,2022-11-17 06:00:00,15.4992728,0.0001708,53.2149,12.1776,51.5833,18.8125,-0.0017257,-0.00097336,0.0,0 STARLINK-5167,1 54058U 22136H   22321.25001157 -.00097336  00000-0 -17257-2 0  9991,2 54058  53.2149  12.1776 0001708  51.5833  18.8125 15.49927280  4841,6795.076,92.908,418.101,415.78,0.0
54058.0,STARLINK-5167,PAYLOAD,2022-11-17 14:00:01,15.49838317,0.0001829,53.2148,10.586,42.3633,88.9644,0.0011218,0.00063632,0.0,0 STARLINK-5167,1 54058U 22136H   22321.58334491  .00063632  00000-0  11218-2 0  9998,2 54058  53.2148  10.5860 0001829  42.3633  88.9644 15.49838317  1300,6795.3359999999975,92.913,418.443,415.958,0.0
54058.0,STARLINK-5167,PAYLOAD,2022-11-17 22:00:00,15.49867374,0.0001698,53.2151,8.991,46.0898,146.129,0.00044515,0.00024878,0.0,0 STARLINK-5167,1 54058U 22136H   22321.91667824  .00024878  00000-0  44515-3 0  9990,2 54058  53.2151   8.9910 0001698  46.0898 146.1290 15.49867374  4952,6795.251,92.911,418.27,415.962,0.0
